ORBCOMM-X [-]           
1 21576U 91050C   23325.41501640  .00000336  00000+0  11502-3 0  9995
2 21576  98.4183  30.7621 0004781 113.6401 246.5291 14.42259942699387
ORBCOMM FM01 [-]        
1 23545U 95017A   23325.74348167  .00005077  00000+0  72368-3 0  9993
2 23545  69.9696  48.4954 0001762 123.0102 237.1215 14.77349955527835
ORBCOMM FM02 [-]        
1 23546U 95017B   23325.52274891  .00005248  00000+0  75568-3 0  9997
2 23546  69.9707  68.1559 0003837 100.9515 259.2065 14.76888783527100
ORBCOMM FM08 [-]        
1 25112U 97084A   23325.76016003  .00001467  00000+0  49029-3 0  9991
2 25112  45.0152 230.7551 0006977 242.9623 117.0515 14.41579236358682
ORBCOMM FM10 [-]        
1 25113U 97084B   23325.13460362  .00001143  00000+0  39225-3 0  9992
2 25113  45.0165 235.4776 0004158 211.7728 148.2871 14.41511968533579
ORBCOMM FM11 [+]        
1 25114U 97084C   23325.76344594  .00001418  00000+0  47721-3 0  9995
2 25114  45.0148 232.4185 0004945 213.4392 146.6146 14.41405690358668
ORBCOMM FM12 [-]        
1 25115U 97084D   23325.44281380  .00001226  00000+0  41886-3 0  9997
2 25115  45.0159 233.5963 0003978 215.9034 144.1549 14.41384205358389
ORBCOMM FM09 [-]        
1 25116U 97084E   23325.72756223  .00001422  00000+0  47874-3 0  9993
2 25116  45.0160 232.8791 0004951 195.6761 164.3936 14.41358067358668
